ONEWEB-0168             
1 48068U 21025AC  24007.86422890  .00000003  00000+0 -25482-4 0  9996
2 48068  87.9011 137.6012 0001556 101.4765 258.6539 13.13472837136552
ONEWEB-0173             
1 48069U 21025AD  24007.85627250 -.00000514  00000+0 -14421-2 0  9990
2 48069  87.9010 137.6135 0001980  93.1626 266.9730 13.13470068136797
ONEWEB-0171             
1 48070U 21025AE  24007.89278132  .00000317  00000+0  83435-3 0  9998
2 48070  87.9006 137.6410 0001738 103.5487 256.5836 13.13468975136619
ONEWEB-0172             
1 48071U 21025AF  24007.87215612  .00000172  00000+0  43514-3 0  9994
2 48071  87.9009 137.6121 0001795 101.6175 258.5156 13.13472173137509
ONEWEB-0174             
1 48072U 21025AG  24007.85469881 -.00000172  00000+0 -50723-3 0  9994
2 48072  87.9000 137.6297 0001391 101.2044 258.9241 13.13470883136827
ONEWEB-0175             
1 48073U 21025AH  24008.41650600  .00000345  00000+0  90988-3 0  9996
2 48073  87.9007 137.5161 0001975 110.6674 249.4667 13.13468626136554
ONEWEB-0177             
1 48074U 21025AJ  24007.89595290  .00000172  00000+0  43742-3 0  9995
2 48074  87.9009 137.6248 0001706  90.8476 269.2848 13.13468451136675
ONEWEB-0178             
1 48075U 21025AK  24007.91354407 -.00000205  00000+0 -59517-3 0  9998
2 48075  87.9015 137.6284 0001638  91.7620 268.3696 13.13467765136722
